SHIJIAN-6 05B (SJ-6 05B)
1 49962U 21122B   26068.69026669  .00003434  00000+0  20679-3 0  9994
2 49962  97.3727  52.7566 0002764  59.7124 300.4380 15.11445981234719
STARLINK-4725           
1 53700U 22107A   26068.71970953 -.00000701  00000+0 -25935-4 0  9997
2 53700  53.2172 243.6159 0001458  96.6204 263.4955 15.08842407194863
