[{"OBJECT_NAME":"SHIJIAN-6 05B (SJ-6 05B)","OBJECT_ID":"2021-122B","EPOCH":"2026-03-09T16:33:59.042016","MEAN_MOTION":15.11445981,"ECCENTRICITY":0.0002764,"INCLINATION":97.3727,"RA_OF_ASC_NODE":52.7566,"ARG_OF_PERICENTER":59.7124,"MEAN_ANOMALY":300.438,"EPHEMERIS_TYPE":0,"CLASSIFICATION_TYPE":"U","NORAD_CAT_ID":49962,"ELEMENT_SET_NO":999,"REV_AT_EPOCH":23471,"BSTAR":0.00020679,"MEAN_MOTION_DOT":3.434e-5,"MEAN_MOTION_DDOT":0},{"OBJECT_NAME":"STARLINK-4725","OBJECT_ID":"2022-107A","EPOCH":"2026-03-09T17:16:22.903392","MEAN_MOTION":15.08842407,"ECCENTRICITY":0.00014576,"INCLINATION":53.2172,"RA_OF_ASC_NODE":243.6159,"ARG_OF_PERICENTER":96.6204,"MEAN_ANOMALY":263.4955,"EPHEMERIS_TYPE":0,"CLASSIFICATION_TYPE":"U","NORAD_CAT_ID":53700,"ELEMENT_SET_NO":999,"REV_AT_EPOCH":19486,"BSTAR":-2.5935289e-5,"MEAN_MOTION_DOT":-7.01e-6,"MEAN_MOTION_DDOT":0}]
